OBJECT_NAME,OBJECT_ID,EPOCH,MEAN_MOTION,ECCENTRICITY,INCLINATION,RA_OF_ASC_NODE,ARG_OF_PERICENTER,MEAN_ANOMALY,EPHEMERIS_TYPE,CLASSIFICATION_TYPE,NORAD_CAT_ID,ELEMENT_SET_NO,REV_AT_EPOCH,BSTAR,MEAN_MOTION_DOT,MEAN_MOTION_DDOT
QB50P1,2014-033R,2026-07-07T23:23:00.559392,15.18590831,.0009877,98.0971,201.5818,146.1171,214.0694,0,U,40025,999,65618,.24981E-3,.5094E-4,0
DTUSAT-2,2014-033W,2026-07-07T23:23:55.663584,15.15290575,.0008771,98.0875,188.0260,153.1411,207.0275,0,U,40030,999,65583,.18461E-3,.3402E-4,0
QB50P2,2014-033Y,2026-07-07T23:12:48.970080,15.15442083,.0009332,98.0762,187.1450,103.8337,256.3932,0,U,40032,999,65581,.20039E-3,.3716E-4,0
PERSEUS-M1,2014-033AF,2026-07-07T20:13:05.259072,14.95696203,.0010495,97.9645,133.3147,223.5513,136.4879,0,U,40039,999,65372,.11243E-3,.1191E-4,0
POLYITAN-1,2014-033AJ,2026-07-07T22:20:56.709024,15.34031517,.0008406,98.0942,217.1650,84.8974,275.3226,0,U,40042,999,65677,.34689E-3,.11348E-3,0
TIGRISAT,2014-033AK,2026-07-08T04:52:47.841600,14.85235368,.0049257,97.7856,338.7368,7.3778,352.8151,0,U,40043,999,64874,.15273E-3,.1283E-4,0
CANX-4,2014-034C,2026-07-08T02:12:54.511776,14.81302577,.0011684,98.3096,65.1704,308.1402,51.8755,0,U,40055,999,64762,.90799E-4,.651E-5,0
CANX-5,2014-034D,2026-07-08T02:10:18.058656,14.81319930,.0011678,98.3098,65.2133,308.3694,51.6468,0,U,40056,999,63843,.9091E-4,.653E-5,0
GONETS-M 10,2014-036C,2026-07-08T05:45:53.388864,12.42946761,.0022993,82.5122,294.5989,96.7995,263.5702,0,U,40063,999,54486,.1062E-2,.157E-5,0
METEOR-M 2,2014-037A,2026-07-08T04:36:43.994304,14.21469270,.0005597,98.5129,164.1878,348.7535,11.3517,0,U,40069,999,62230,.25456E-3,.515E-5,0
DX1,2014-037C,2026-07-08T04:18:03.928032,14.90050471,.0006519,98.3876,152.1565,193.2147,166.8899,0,U,40071,999,64923,.18127E-3,.1688E-4,0
UKUBE-1,2014-037F,2026-07-07T17:26:14.269920,15.13875148,.0003327,98.4246,194.1610,100.8732,259.2871,0,U,40074,999,65166,.26186E-3,.4659E-4,0
GAOFEN-2,2014-049A,2026-07-08T04:33:13.599072,14.80920928,.0007755,98.0095,253.3763,155.3185,204.8400,0,U,40118,999,64234,.38004E-5,-.24E-6,0
BRITE-PL2 (HEWELIUSZ),2014-049B,2026-07-07T20:37:07.214592,14.94670588,.0014882,97.9110,301.0209,46.1590,314.0857,0,U,40119,999,64453,.16367E-3,.1718E-4,0
CBERS 4,2014-079A,2026-07-08T05:26:14.877312,14.35514499,.0001053,98.3517,245.3973,50.2210,309.9069,0,U,40336,999,60697,-.24232E-4,-.112E-5,0
SMAP,2015-003A,2026-07-08T04:59:35.935584,14.63385108,.0001543,98.1280,196.0050,96.3818,263.7560,0,U,40376,999,61069,.71093E-4,.321E-5,0
GONETS-M 11,2015-020A,2026-07-08T04:18:04.451616,12.42878070,.0015635,82.4866,17.9083,319.5364,40.4552,0,U,40552,999,51134,-.6267E-4,.1E-7,0
GONETS-M 12,2015-020B,2026-07-08T03:39:34.500096,12.42891301,.0014422,82.4898,19.0544,303.8256,56.1450,0,U,40553,999,51133,-.10408E-2,-.134E-5,0
GONETS-M 13,2015-020C,2026-07-08T04:57:48.556800,12.42871155,.0012877,82.4862,17.6294,287.8115,72.1559,0,U,40554,999,51131,-.79695E-3,-.101E-5,0
DMC3-FM1,2015-032A,2026-07-08T03:36:38.251008,14.85761396,.0005637,97.6437,53.5002,1.2897,358.8333,0,U,40715,999,59302,-.1118E-4,-.148E-5,0
DMC3-FM2,2015-032B,2026-07-08T04:08:16.326816,14.85768149,.0006253,97.6487,55.1094,4.8220,355.3054,0,U,40716,999,59302,.54446E-4,.422E-5,0
DMC3-FM3,2015-032C,2026-07-08T04:42:04.673088,14.85760175,.0005479,97.6540,56.8985,7.7812,352.3488,0,U,40717,999,59303,.12342E-3,.1021E-4,0
CARBONITE 1 (CBNT-1),2015-032D,2026-07-08T05:24:10.351584,14.83651786,.0013325,97.6523,6.4120,221.5877,138.4325,0,U,40718,999,59246,.69225E-4,.521E-5,0
LILACSAT-2,2015-049K,2026-07-08T03:57:41.420736,15.52174746,.0007828,97.4629,226.8104,162.6919,197.4601,0,U,40908,999,59900,.19301E-3,.11599E-3,0
COSMOS 2507 (RODNIK-S 13),2015-050A,2026-07-08T03:51:30.901248,12.42927352,.0009246,82.4909,66.6106,310.1189,49.9079,0,U,40920,999,48946,-.6209E-4,.1E-7,0
COSMOS 2508 (RODNIK-S 14),2015-050B,2026-07-08T02:47:01.858272,12.42914874,.0014263,82.4861,65.1355,342.6332,17.4258,0,U,40921,999,48944,-.24075E-3,-.24E-6,0
COSMOS 2509 (RODNIK-S 15),2015-050C,2026-07-08T05:12:58.537152,12.42884370,.0014946,82.4870,65.1769,359.3834,0.7225,0,U,40922,999,48949,-.15982E-3,-.12E-6,0
