QB50P1                  
1 40025U 14033R   26188.97431203  .00005094  00000+0  24981-3 0  9990
2 40025  98.0971 201.5818 0009877 146.1171 214.0694 15.18590831656187
DTUSAT-2                
1 40030U 14033W   26188.97494981  .00003402  00000+0  18461-3 0  9995
2 40030  98.0875 188.0260 0008771 153.1411 207.0275 15.15290575655830
QB50P2                  
1 40032U 14033Y   26188.96723345  .00003716  00000+0  20039-3 0  9997
2 40032  98.0762 187.1450 0009332 103.8337 256.3932 15.15442083655819
PERSEUS-M1              
1 40039U 14033AF  26188.84242198  .00001191  00000+0  11243-3 0  9995
2 40039  97.9645 133.3147 0010495 223.5513 136.4879 14.95696203653726
POLYITAN-1              
1 40042U 14033AJ  26188.93121191  .00011348  00000+0  34689-3 0  9992
2 40042  98.0942 217.1650 0008406  84.8974 275.3226 15.34031517656772
TIGRISAT                
1 40043U 14033AK  26189.20333150  .00001283  00000+0  15273-3 0  9999
2 40043  97.7856 338.7368 0049257   7.3778 352.8151 14.85235368648741
CANX-4                  
1 40055U 14034C   26189.09229759  .00000651  00000+0  90799-4 0  9994
2 40055  98.3096  65.1704 0011684 308.1402  51.8755 14.81302577647626
CANX-5                  
1 40056U 14034D   26189.09048679  .00000653  00000+0  90910-4 0  9992
2 40056  98.3098  65.2133 0011678 308.3694  51.6468 14.81319930638433
GONETS-M 10             
1 40063U 14036C   26189.24020126  .00000157  00000+0  10620-2 0  9993
2 40063  82.5122 294.5989 0022993  96.7995 263.5702 12.42946761544865
METEOR-M 2              
1 40069U 14037A   26189.19217586  .00000515  00000+0  25456-3 0  9994
2 40069  98.5129 164.1878 0005597 348.7535  11.3517 14.21469270622308
DX1                     
1 40071U 14037C   26189.17921213  .00001688  00000+0  18127-3 0  9993
2 40071  98.3876 152.1565 0006519 193.2147 166.8899 14.90050471649230
UKUBE-1                 
1 40074U 14037F   26188.72655405  .00004659  00000+0  26186-3 0  9998
2 40074  98.4246 194.1610 0003327 100.8732 259.2871 15.13875148651669
GAOFEN-2                
1 40118U 14049A   26189.18974073 -.00000024  00000+0  38004-5 0  9993
2 40118  98.0095 253.3763 0007755 155.3185 204.8400 14.80920928642348
BRITE-PL2 (HEWELIUSZ)   
1 40119U 14049B   26188.85911128  .00001718  00000+0  16367-3 0  9995
2 40119  97.9110 301.0209 0014882  46.1590 314.0857 14.94670588644539
CBERS 4                 
1 40336U 14079A   26189.22656108 -.00000112  00000+0 -24232-4 0  9995
2 40336  98.3517 245.3973 0001053  50.2210 309.9069 14.35514499606972
SMAP                    
1 40376U 15003A   26189.20805481  .00000321  00000+0  71093-4 0  9992
2 40376  98.1280 196.0050 0001543  96.3818 263.7560 14.63385108610699
GONETS-M 11             
1 40552U 15020A   26189.17921819  .00000001  00000+0 -62670-4 0  9994
2 40552  82.4866  17.9083 0015635 319.5364  40.4552 12.42878070511344
GONETS-M 12             
1 40553U 15020B   26189.15248264 -.00000134  00000+0 -10408-2 0  9997
2 40553  82.4898  19.0544 0014422 303.8256  56.1450 12.42891301511336
GONETS-M 13             
1 40554U 15020C   26189.20681200 -.00000101  00000+0 -79695-3 0  9993
2 40554  82.4862  17.6294 0012877 287.8115  72.1559 12.42871155511312
DMC3-FM1                
1 40715U 15032A   26189.15044272 -.00000148  00000+0 -11180-4 0  9998
2 40715  97.6437  53.5002 0005637   1.2897 358.8333 14.85761396593020
DMC3-FM2                
1 40716U 15032B   26189.17241119  .00000422  00000+0  54446-4 0  9995
2 40716  97.6487  55.1094 0006253   4.8220 355.3054 14.85768149593024
DMC3-FM3                
1 40717U 15032C   26189.19588742  .00001021  00000+0  12342-3 0  9998
2 40717  97.6540  56.8985 0005479   7.7812 352.3488 14.85760175593030
CARBONITE 1 (CBNT-1)    
1 40718U 15032D   26189.22511981  .00000521  00000+0  69225-4 0  9991
2 40718  97.6523   6.4120 0013325 221.5877 138.4325 14.83651786592464
LILACSAT-2              
1 40908U 15049K   26189.16506274  .00011599  00000+0  19301-3 0  9998
2 40908  97.4629 226.8104 0007828 162.6919 197.4601 15.52174746599005
COSMOS 2507 (RODNIK-S *)
1 40920U 15050A   26189.16077432  .00000001  00000+0 -62090-4 0  9994
2 40920  82.4909  66.6106 0009246 310.1189  49.9079 12.42927352489464
COSMOS 2508 (RODNIK-S *)
1 40921U 15050B   26189.11599373 -.00000024  00000+0 -24075-3 0  9999
2 40921  82.4861  65.1355 0014263 342.6332  17.4258 12.42914874489449
COSMOS 2509 (RODNIK-S *)
1 40922U 15050C   26189.21734418 -.00000012  00000+0 -15982-3 0  9996
2 40922  82.4870  65.1769 0014946 359.3834   0.7225 12.42884370489490
